#dP2020  3 12  0  0  0.00000000      96 __u+U ITR00 FIT  IAC
## 2096 345600.00000000   900.00000000 58920 0.0000000000000
+  106   C06C07C08C09C10C11C12C13C14C16C19C20C21C22C23C24C25
+        C26C27C28C29C30C32C33C34C35C36C37E01E02E03E04E05E07
+        E08E09E11E12E13E14E15E18E19E21E24E25E26E27E30E31E33
+        E36G01G02G03G04G05G06G07G08G09G10G11G12G13G14G15G16
+        G17G19G20G21G22G23G24G25G26G27G28G29G30G31G32R01R02
+        R03R04R05R07R08R09R11R12R13R14R15R16R17R18R19R20R21
+        R22R23R24R26  0  0  0  0  0  0  0  0  0  0  0  0  0
++         8  9  9  8  8  8  8  8  8  8  8  7  8  7  8  8  8
++         8  7  8  8  7  8  8  8  8  8  8  4  4  4  4  4  4
++         4  4  4  4  5  4  4  4  4  5  4  4  4  5  4  4  4
++         4  3  3  3  4  3  3  4  4  3  4  3  3  4  3  3  4
++         3  3  4  4  4  4  3  3  4  4  3  4  3  3  3  6  5
++         5  5  5  5  5  6  5  6  6  6  5  6  5  5  6  6  5
++         6  6 12  8  0  0  0  0  0  0  0  0  0  0  0  0  0
%c M  cc GPS ccc cccc cccc cccc cccc ccccc ccccc ccccc ccccc
%c cc cc ccc ccc cccc cccc cccc cccc ccccc ccccc ccccc ccccc
%f  0.0000000  0.000000000  0.00000000000  0.000000000000000
%f  0.0000000  0.000000000  0.00000000000  0.000000000000000
%i    0    0    0    0      0      0      0      0         0
%i    0    0    0    0      0      0      0      0         0
/* INFORMATION & ANALYSIS CENTER (IAC)      ULTRA-RAPID DATA
/* S/V CLOCKS ARE ALIGNED TO GNSS TIME                      
/* G:C1WC2W R:C1PC2P E:C1XC5X C:C2IC6I J:C1CC2S             
/* PCV:IGS14_2091 OL/AL:FES2004  NONE     YN ORB:CoN CLK:CoN
*  2020 03 12 17  0  0.00000000
PC06 -20196.310408  37269.632352    297.995103    240.907336
PC07  -8759.163678  28079.422888 -29858.538920    946.753293
PC08 -21447.149579  19515.176467  30574.999104   -152.483786
PC09 -11123.638943  38337.816991 -13898.791870    396.603766
PC10   4255.805466  35230.189536 -22291.880870   -748.080947
PC11   6080.375524 -21502.385766 -16682.628719   -236.077475
PC12  19635.250769 -19844.560662    139.813132    330.967521
PC13  -5805.009841  23198.107185  34794.448002    319.141179
PC14  -3361.680418 -27036.711183  -6139.024396    229.507369
PC16 -16691.089177  38586.833304  -4218.454513   -730.185738
PC19   9642.494526  26022.285701  -2832.624042    350.082925
PC20  -2950.722449  24094.095990  13761.195910   -853.386685
PC21  14212.132780  -7764.915199 -22706.615831   -165.793150
PC22  16857.040692  12828.923642 -18143.807557   -875.860304
PC23 -26166.881621  -9175.416650   3120.856903   -919.882218
PC24   8192.453008 -14361.542283  22471.723759   -905.556039
PC25 -13638.104575 -16341.597871  18030.653550   -545.987305
PC26  23667.361593  -4656.322664  14055.055466    603.992262
PC27 -22590.539553  13786.264811  -8902.371809    293.970303
PC28 -17807.910778  -3022.542397 -21265.634082    284.923019
PC29   3356.004956  17885.010332  21155.840803    199.958723
PC30 -13480.290657  22966.228329   8387.233444    285.592820
PC32 -14189.485807   7865.894341  22721.499471   -894.046105
PC33  -9771.866724 -25997.983776   2817.260158   -914.943222
PC34  13198.735822 -22953.623375  -8770.436619   -541.822521
PC35  17837.893672   2628.130627  21291.575100   -943.002101
PC36  13057.840759  16679.665314 -18148.059115   -822.649545
PC37 -24084.002758   3688.697720 -13576.671580   -859.847434
PE01  22612.528188  19083.487285   -980.201375   -813.284271
PE02 -22642.581155 -19029.076081    889.681530    118.889869
PE03 -11912.880442 -17788.114429  20447.236994   -276.022976
PE04  17493.999150  -3744.538762 -23576.772522   -483.620136
PE05    716.207269 -29116.246003   5290.831487   -397.868857
PE07 -12848.864658  23355.588970  12864.977272   -353.184630
PE08 -17336.166993   4097.994677  23640.383160   6207.760993
PE09  12566.149336 -23534.072876 -12833.372657   6127.906003
PE11  21692.336108 -16682.484010 -11252.832120   1696.733967
PE12  27948.687664  -5463.706637   8039.782089   5907.788571
PE13 -21828.707173  16670.231580  11061.549347    399.152561
PE14  17969.674536  -8467.994287  14309.447069   -937.757538
PE15 -27953.689905   5780.610190  -7836.423846    874.231657
PE18 -22159.147674    914.457993 -22924.104010  -1035.750218
PE19  10712.148444  19645.914791 -19374.100986     -1.169032
PE21   8278.444880  22011.061336 -17986.876664   -587.545670
PE24  11335.693493 -11977.524208  24565.377114   5564.059253
PE25  -8163.548288 -21981.704607  18060.933040   -506.477370
PE26  -2577.138845  17844.068632  23487.616168   3427.525678
PE27 -11110.962363  12118.700973 -24615.137244    263.762899
PE30 -23961.306291  -5124.379028 -16606.264089   4072.867808
PE31  23910.062403   4857.094465  16765.552246   -471.974939
PE33  17654.431247   8540.576640  22179.865267   -469.556504
PE36   2889.444726 -17779.779372 -23474.253060    586.954686
PG01  -7628.650378 -13917.944832 -21558.781363   -323.586453
PG02 -16043.679175  14149.777800  16336.475481   -420.645644
PG03 -12530.451718 -23092.051139  -4294.265780   -116.157453
PG04  -3232.075563 -20085.808721  17071.096287    -61.273976
PG05  -4530.164300  17190.947542  19537.398300     -9.007964
PG06 -24597.000478   7089.262791   7225.732246   -229.350860
PG07 -23246.006495  -6645.088304  11821.301721   -234.193307
PG08   4978.253996 -24663.853774  -8070.435211    -26.852369
PG09 -11712.410866 -10744.553997  21225.451360   -174.999842
PG10  18569.767147   4021.599347 -18571.071026   -274.975804
PG11   3175.958908 -19056.618826 -18833.877746   -336.026480
PG12   9215.272243  24139.932519  -6758.411877    141.486069
PG13 -12860.259398  23103.707344  -2079.331985     -6.307425
PG14  17839.920215 -15984.501344 -10933.048366    -26.778457
PG15  -1636.052080  24904.037215  -8815.377435   -245.471072
PG16   5554.518903 -16673.110712  19554.843727   -134.249858
PG17 -17533.072834   7121.697183 -18193.241252    230.880957
PG19 -18589.032018  13732.125897 -13383.764584   -186.740718
PG20  21408.052105  12510.887863  -9885.406007    527.871292
PG21  23587.218562   4795.670722  11716.028851    -28.788002
PG22  -7269.889510 -22568.198116 -11867.327906   -785.440282
PG23  -5429.113957 -19325.934988  17565.177616   -130.202067
PG24   5950.045103  14981.197209 -21337.619917    -10.256804
PG25  17151.191515  20087.313066   3717.625070     -9.380160
PG26  12876.571818  -8635.896336  21536.123320    166.148608
PG27  12395.297438 -23162.721375   2225.495232   -236.483649
PG28 -17178.942416  -3987.533811 -19228.183791    733.366994
PG29   9083.953615  12825.489211  21371.104744    -54.806607
PG30 -26646.667558    650.342114   1013.857410   -173.777573
PG31  23666.359594  -8144.504634   9513.918341    -28.973362
PG32  17642.820949  -8259.976795 -17918.018412    234.469341
PR01  -2961.960135  22685.600310  11268.354208     58.427972
PR02   6530.060092  22752.508554  -9537.983587    416.359117
PR03  11027.548848   8124.240729 -21487.535735     11.401013
PR04   8949.122107 -11020.583250 -21164.636123     41.747081
PR05   1967.990043 -23848.651808  -8792.976004     46.616238
PR07 -11086.290245  -7408.078194  21773.891932    -34.264503
PR08  -9120.658599  10992.719199  21190.975735    -51.025358
PR09 -18593.515018 -14078.196141  10418.563919    121.483070
PR11 -16912.482092   2384.906360 -18953.652344    -16.477978
PR12  -1040.993363  11395.578760 -22778.543281    113.352364
PR13  16213.178950  14288.677672 -13576.192180    -35.946577
PR14  23613.260383   8908.733934   3683.249204     49.049418
PR15  17450.238448  -1656.692914  18548.747179    106.113298
PR16    561.378123 -11690.256654  22624.050398     -2.047784
PR17  17313.109369  -1741.780597  18678.101878    308.427088
PR18  21647.612881 -12732.031076   4298.104413     28.230543
PR19  15133.999154 -16555.864578 -12138.053809    -83.418484
PR20  -2387.985300 -10721.711865 -23004.900872   -406.393143
PR21 -17753.037866   2405.369564 -18143.750462   -110.789284
PR22 -21379.542856  13960.286403  -1462.034294    -17.567204
PR23  -9684.031773  16108.532788  17246.633079    292.095793
PR24   4860.379793   9300.451566  23230.113685    -47.629754
PR26   1568.552342 -13024.384405 -21865.527448   -403.981021
EOF
